ANGOSAT 2               
1 54033U 22131A   26185.51181506  .00000148  00000+0  00000+0 0  9994
2 54033   0.0177 112.3581 0000106 313.1006  64.3113  1.00272058 13652
EUTELSAT HOTBIRD 13F    
1 54048U 22134A   26183.84284726  .00000098  00000+0  00000+0 0  9999
2 54048   0.0550 289.6348 0001960  75.4106 232.2727  1.00269777 13538
LDPE-2                  
1 54219U 22144A   26185.62081046  .00000092  00000+0  00000+0 0  9992
2 54219   5.6522  63.5068 0002335 101.0980 200.6644  1.00540638 12016
EUTELSAT HOTBIRD 13G    
1 54225U 22146A   26183.84284647  .00000000  00000+0  00000+0 0  9994
2 54225   0.0205 247.7452 0002133 288.6594  60.9034  1.00269753  7629
ZHONGXING-19            
1 54230U 22148A   26185.53973654 -.00000069  00000+0  00000+0 0  9999
2 54230   0.0449 254.2318 0003058 234.7464 151.0833  1.00271121 13554
GALAXY 31 (G-31)        
1 54243U 22153A   26185.55470188  .00000025  00000+0  00000+0 0  9996
2 54243   0.0204  90.8335 0001472  12.7159 257.7024  1.00272331  7309
GALAXY 32 (G-32)        
1 54244U 22153B   26183.56456632 -.00000164  00000+0  00000+0 0  9999
2 54244   0.0105  15.3279 0001988  35.2758 342.2488  1.00272409 13291
EUTELSAT 10B            
1 54259U 22157A   26183.79843436  .00000079  00000+0  00000+0 0  9990
2 54259   0.0608  95.8776 0002406  15.5205 106.8659  1.00270773 13188
GALAXY 35 (G-35)        
1 54741U 22170A   26185.56024858 -.00000150  00000+0  00000+0 0  9998
2 54741   0.0146  82.8926 0002220  21.8931 286.3705  1.00272416 13063
GALAXY 36 (G-36)        
1 54742U 22170B   26185.56102858 -.00000173  00000+0  00000+0 0  9991
2 54742   0.0120  74.3566 0002821  20.8469 300.3400  1.00271909 12945
METEOSAT-12 (MTG-I1)    
1 54743U 22170C   26185.36472414  .00000006  00000+0  00000+0 0  9992
2 54743   0.7569  25.5656 0003538  75.5013 312.3958  1.00276407 13159
SHIJIAN-23 (SJ-23)      
1 55131U 23002A   26183.77701934 -.00000310  00000+0  00000+0 0  9993
2 55131   3.7551  78.1245 0003517 278.1911 341.9054  1.00083356 12667
APSTAR-6E               
1 55239U 23005A   26184.17932634 -.00000307  00000+0  00000+0 0  9999
2 55239   0.0499 220.6137 0001313 324.4150 294.7079  1.00268573 18858
USA 342                 
1 55263U 23008A   26182.16156895  .00000000  00000+0  00000+0 0  9992
2 55263   0.0057  55.5286 0000567 166.1191 139.6640  1.00270158 12656
LDPE-3A                 
1 55264U 23008B   26185.54320322 -.00000130  00000+0  00000+0 0  9991
2 55264   2.3902  81.4606 0001564  63.9859 153.4133  0.99151334 11985
ELEKTRO-L 4             
1 55506U 23016A   26184.75679400 -.00000047  00000+0  00000+0 0  9992
2 55506   0.0946 138.3444 0001089  42.1814 179.4709  1.00271883 12502
AMAZONAS NEXUS          
1 55508U 23017A   26184.71099641 -.00000271  00000+0  00000+0 0  9993
2 55508   0.0348  39.6357 0004934  39.6396  37.4189  1.00269984  7210
ZHONGXING-26            
1 55686U 23023A   26183.89562069 -.00000343  00000+0  00000+0 0  9994
2 55686   0.0647  70.3129 0003292  27.3144 270.8607  1.00269722 12381
LUCH-5X (OLYMP-K 2)     
1 55841U 23031A   26183.77616301  .00000044  00000+0  00000+0 0  9999
2 55841   0.0299  86.0246 0001113 152.0734  24.0844  1.00269692 12098
GAOFEN-13 02            
1 55912U 23036A   26185.60964753 -.00000208  00000+0  00000+0 0  9997
2 55912   1.0236   3.2091 0003497 334.2056 312.8178  1.00267121 12268
SES-18                  
1 55970U 23038A   26185.55825523 -.00000089  00000+0  00000+0 0  9995
2 55970   0.0354 270.9992 0000145 255.1750 214.2658  1.00272299 12275
SES-19                  
1 55971U 23038B   26183.84867729  .00000098  00000+0  00000+0 0  9999
2 55971   0.0087  29.7739 0001823  69.9213 351.8179  1.00270815 12253
INTELSAT 40E (IS-40E)   
1 56174U 23052A   26185.34678405 -.00000162  00000+0  00000+0 0  9992
2 56174   0.0139  77.1053 0002429  56.6496 182.4492  1.00271673 11991
VIASAT-3 F1             
1 56370U 23060A   26183.63626662  .00000000  00000+0  00000+0 0  9997
2 56370   0.0198   6.0968 0000761 100.5919 314.0664  1.00272672 11585
ARCTURUS                
1 56371U 23060B   26185.09670498 -.00000246  00000+0  00000+0 0  9999
2 56371   2.8173  79.7292 0000505 153.7933 169.4285  1.00598346 11623
GS-1                    
1 56372U 23060C   26184.88351787 -.00000213  00000+0  00000+0 0  9997
2 56372   2.7678  79.6359 0003577 280.3462 329.4183  1.00269942  7708
BEIDOU-3 G4             
1 56564U 23066A   26185.60638995 -.00000269  00000+0  00000+0 0  9997
2 56564   0.4693 335.7943 0005048 177.8867 127.2288  1.00267847 11563
ARABSAT-7B (BADR-8)     
1 56757U 23075A   26183.30251235  .00000155  00000+0  00000+0 0  9997
2 56757   0.0729  28.1371 0004084   3.9949  23.1140  1.00271160 11261
NVS-01 (IRNSS-1J)       
1 56759U 23076A   26185.60436617 -.00000323  00000+0  00000+0 0  9992
2 56759   2.1274 243.5692 0003061   8.0599  18.1287  1.00270706 11295
NUSANTARA TIGA (SATRIA) 
1 57045U 23086A   26183.85937124 -.00000224  00000+0  00000+0 0  9996
2 57045   0.0365   3.4425 0002507 339.4312  33.3935  1.00269466  9913
H2SAT (HEINRICH HERTZ)  
1 57213U 23093A   26183.36884350  .00000012  00000+0  00000+0 0  9993
2 57213   0.0305  96.5420 0001078  16.6933 300.6646  1.00270532 11061
