OBJECT_NAME,OBJECT_ID,EPOCH,MEAN_MOTION,ECCENTRICITY,INCLINATION,RA_OF_ASC_NODE,ARG_OF_PERICENTER,MEAN_ANOMALY,EPHEMERIS_TYPE,CLASSIFICATION_TYPE,NORAD_CAT_ID,ELEMENT_SET_NO,REV_AT_EPOCH,BSTAR,MEAN_MOTION_DOT,MEAN_MOTION_DDOT
ANGOSAT 2,2022-131A,2026-07-04T12:17:00.821184,1.00272058,.0000106,0.0177,112.3581,313.1006,64.3113,0,U,54033,999,1365,0,.148E-5,0
EUTELSAT HOTBIRD 13F,2022-134A,2026-07-02T20:13:42.003264,1.00269777,.00019607,0.0550,289.6348,75.4106,232.2727,0,U,54048,999,1353,0,.98E-6,0
LDPE-2,2022-144A,2026-07-04T14:53:58.023744,1.00540638,.00023357,5.6522,63.5068,101.0980,200.6644,0,U,54219,999,1201,0,.92E-6,0
EUTELSAT HOTBIRD 13G,2022-146A,2026-07-02T20:13:41.935008,1.00269753,.0002133,0.0205,247.7452,288.6594,60.9034,0,U,54225,999,762,0,0,0
ZHONGXING-19,2022-148A,2026-07-04T12:57:13.237056,1.00271121,.00030587,0.0449,254.2318,234.7464,151.0833,0,U,54230,999,1355,0,-.69E-6,0
GALAXY 31 (G-31),2022-153A,2026-07-04T13:18:46.242432,1.00272331,.00014729,0.0204,90.8335,12.7159,257.7024,0,U,54243,999,730,0,.25E-6,0
GALAXY 32 (G-32),2022-153B,2026-07-02T13:32:58.530048,1.00272409,.0001988,0.0105,15.3279,35.2758,342.2488,0,U,54244,999,1329,0,-.164E-5,0
EUTELSAT 10B,2022-157A,2026-07-02T19:09:44.728704,1.00270773,.00024068,0.0608,95.8776,15.5205,106.8659,0,U,54259,999,1318,0,.79E-6,0
GALAXY 35 (G-35),2022-170A,2026-07-04T13:26:45.477312,1.00272416,.00022202,0.0146,82.8926,21.8931,286.3705,0,U,54741,999,1306,0,-.15E-5,0
GALAXY 36 (G-36),2022-170B,2026-07-04T13:27:52.869312,1.00271909,.00028214,0.0120,74.3566,20.8469,300.3400,0,U,54742,999,1294,0,-.173E-5,0
METEOSAT-12 (MTG-I1),2022-170C,2026-07-04T08:45:12.165696,1.00276407,.00035381,0.7569,25.5656,75.5013,312.3958,0,U,54743,999,1315,0,.6E-7,0
SHIJIAN-23 (SJ-23),2023-002A,2026-07-02T18:38:54.470976,1.00083356,.0003517,3.7551,78.1245,278.1911,341.9054,0,U,55131,999,1266,0,-.31E-5,0
APSTAR-6E,2023-005A,2026-07-03T04:18:13.795776,1.00268573,.0001313,0.0499,220.6137,324.4150,294.7079,0,U,55239,999,1885,0,-.307E-5,0
USA 342,2023-008A,2026-07-01T03:52:39.557280,1.00270158,.0000567,0.0057,55.5286,166.1191,139.6640,0,U,55263,999,1265,0,0,0
LDPE-3A,2023-008B,2026-07-04T13:02:12.758208,0.99151334,.00015649,2.3902,81.4606,63.9859,153.4133,0,U,55264,999,1198,0,-.13E-5,0
ELEKTRO-L 4,2023-016A,2026-07-03T18:09:47.001600,1.00271883,.0001089,0.0946,138.3444,42.1814,179.4709,0,U,55506,999,1250,0,-.47E-6,0
AMAZONAS NEXUS,2023-017A,2026-07-03T17:03:50.089824,1.00269984,.00049349,0.0348,39.6357,39.6396,37.4189,0,U,55508,999,721,0,-.271E-5,0
ZHONGXING-26,2023-023A,2026-07-02T21:29:41.627616,1.00269722,.00032929,0.0647,70.3129,27.3144,270.8607,0,U,55686,999,1238,0,-.343E-5,0
LUCH-5X (OLYMP-K 2),2023-031A,2026-07-02T18:37:40.484064,1.00269692,.0001113,0.0299,86.0246,152.0734,24.0844,0,U,55841,999,1209,0,.44E-6,0
GAOFEN-13 02,2023-036A,2026-07-04T14:37:53.546592,1.00267121,.00034975,1.0236,3.2091,334.2056,312.8178,0,U,55912,999,1226,0,-.208E-5,0
SES-18,2023-038A,2026-07-04T13:23:53.251872,1.00272299,.0000145,0.0354,270.9992,255.1750,214.2658,0,U,55970,999,1227,0,-.89E-6,0
SES-19,2023-038B,2026-07-02T20:22:05.717856,1.00270815,.00018235,0.0087,29.7739,69.9213,351.8179,0,U,55971,999,1225,0,.98E-6,0
INTELSAT 40E (IS-40E),2023-052A,2026-07-04T08:19:22.141920,1.00271673,.00024296,0.0139,77.1053,56.6496,182.4492,0,U,56174,999,1199,0,-.162E-5,0
VIASAT-3 F1,2023-060A,2026-07-02T15:16:13.435968,1.00272672,.00007614,0.0198,6.0968,100.5919,314.0664,0,U,56370,999,1158,0,0,0
ARCTURUS,2023-060B,2026-07-04T02:19:15.310272,1.00598346,.00005055,2.8173,79.7292,153.7933,169.4285,0,U,56371,999,1162,0,-.246E-5,0
GS-1,2023-060C,2026-07-03T21:12:15.943968,1.00269942,.00035776,2.7678,79.6359,280.3462,329.4183,0,U,56372,999,770,0,-.213E-5,0
BEIDOU-3 G4,2023-066A,2026-07-04T14:33:12.091680,1.00267847,.00050487,0.4693,335.7943,177.8867,127.2288,0,U,56564,999,1156,0,-.269E-5,0
ARABSAT-7B (BADR-8),2023-075A,2026-07-02T07:15:37.067040,1.00271160,.0004084,0.0729,28.1371,3.9949,23.1140,0,U,56757,999,1126,0,.155E-5,0
NVS-01 (IRNSS-1J),2023-076A,2026-07-04T14:30:17.237088,1.00270706,.00030619,2.1274,243.5692,8.0599,18.1287,0,U,56759,999,1129,0,-.323E-5,0
NUSANTARA TIGA (SATRIA),2023-086A,2026-07-02T20:37:29.675136,1.00269466,.0002507,0.0365,3.4425,339.4312,33.3935,0,U,57045,999,991,0,-.224E-5,0
H2SAT (HEINRICH HERTZ),2023-093A,2026-07-02T08:51:08.078400,1.00270532,.0001078,0.0305,96.5420,16.6933,300.6646,0,U,57213,999,1106,0,.12E-6,0
